{
  "norad_id": 68488,
  "name": "TRANSPORTER-16 OBJECT CA",
  "history": [
    {
      "epoch": "2026-04-15T20:53:19.929984Z",
      "apogee_km": 593.899452387388,
      "perigee_km": 592.7324311649336,
      "latitude_deg": 1.937179744364614e-05,
      "longitude_deg": -92.26107499160743,
      "height_km": 596.6767652694865,
      "semi_major_axis_km": 6971.4529417761605,
      "eccentricity": 8.37e-05,
      "inclination_deg": 97.7533,
      "raan_deg": 65.0982,
      "arg_perigee_deg": 123.2991,
      "mean_anomaly_deg": 236.8308,
      "mean_motion_rev_day": 14.91481297
    }
  ]
}