TRANSPORTER-16 OBJECT CA
1 68488U 26067CA  26105.87036957  .00000231  00000+0  28582-4 0  9998
2 68488  97.7533  65.0982 0000836 123.2991 236.8308 14.91481297  2439
